{
  "type": "FeatureCollection",
  "features": [
    {
      "type": "Feature",
      "properties": {
        "norad_id": 58701,
        "name": "TIANMU-1 16",
        "group": "weather",
        "lat": 68.63912954106581,
        "lon": 21.52502515460794,
        "alt_km": 486.81732781063056,
        "timestamp": "2025-12-27T03:58:43.824924+00:00",
        "meta_object_name": "TIANMU-1 16",
        "meta_object_id": "2024-004B",
        "meta_epoch": "2025-12-26T19:37:18.244992",
        "meta_mean_motion": 15.2462356,
        "meta_eccentricity": 0.0004471,
        "meta_inclination": 97.4571,
        "meta_ra_of_asc_node": 181.6119,
        "meta_arg_of_pericenter": 231.8931,
        "meta_mean_anomaly": 128.1904,
        "meta_ephemeris_type": 0,
        "meta_classification_type": "U",
        "meta_norad_cat_id": 58701,
        "meta_element_set_no": 999,
        "meta_rev_at_epoch": 10949,
        "meta_bstar": 0.00030774,
        "meta_mean_motion_dot": 7.524e-05,
        "meta_mean_motion_ddot": 0,
        "tle_line1": "1 58701U 24004B   25360.81757228  .00007524  00000+0  30774-3 0  9998",
        "tle_line2": "2 58701  97.4571 181.6119 0004471 231.8931 128.1904 15.24623560109498"
      },
      "geometry": {
        "type": "Point",
        "coordinates": [
          21.52502515460794,
          68.63912954106581
        ]
      }
    },
    {
      "type": "Feature",
      "properties": {
        "norad_id": 58702,
        "name": "TIANMU-1 17",
        "group": "weather",
        "lat": -16.78843635923407,
        "lon": 0.11016397749637184,
        "alt_km": 494.69256094007324,
        "timestamp": "2025-12-27T03:58:43.824933+00:00",
        "meta_object_name": "TIANMU-1 17",
        "meta_object_id": "2024-004C",
        "meta_epoch": "2025-12-26T20:49:03.089568",
        "meta_mean_motion": 15.24667441,
        "meta_eccentricity": 0.0003642,
        "meta_inclination": 97.4605,
        "meta_ra_of_asc_node": 182.0788,
        "meta_arg_of_pericenter": 232.2216,
        "meta_mean_anomaly": 127.8692,
        "meta_ephemeris_type": 0,
        "meta_classification_type": "U",
        "meta_norad_cat_id": 58702,
        "meta_element_set_no": 999,
        "meta_rev_at_epoch": 10949,
        "meta_bstar": 0.00032773,
        "meta_mean_motion_dot": 8.028e-05,
        "meta_mean_motion_ddot": 0,
        "tle_line1": "1 58702U 24004C   25360.86739687  .00008028  00000+0  32773-3 0  9994",
        "tle_line2": "2 58702  97.4605 182.0788 0003642 232.2216 127.8692 15.24667441109490"
      },
      "geometry": {
        "type": "Point",
        "coordinates": [
          0.11016397749637184,
          -16.78843635923407
        ]
      }
    },
    {
      "type": "Feature",
      "properties": {
        "norad_id": 58703,
        "name": "TIANMU-1 18",
        "group": "weather",
        "lat": -70.96679562072976,
        "lon": -155.09510257968537,
        "alt_km": 498.09684985032436,
        "timestamp": "2025-12-27T03:58:43.824942+00:00",
        "meta_object_name": "TIANMU-1 18",
        "meta_object_id": "2024-004D",
        "meta_epoch": "2025-12-26T20:25:13.768320",
        "meta_mean_motion": 15.24649535,
        "meta_eccentricity": 0.0003049,
        "meta_inclination": 97.4622,
        "meta_ra_of_asc_node": 182.2607,
        "meta_arg_of_pericenter": 228.3383,
        "meta_mean_anomaly": 131.7594,
        "meta_ephemeris_type": 0,
        "meta_classification_type": "U",
        "meta_norad_cat_id": 58703,
        "meta_element_set_no": 999,
        "meta_rev_at_epoch": 10949,
        "meta_bstar": 0.00031621,
        "meta_mean_motion_dot": 7.738e-05,
        "meta_mean_motion_ddot": 0,
        "tle_line1": "1 58703U 24004D   25360.85085380  .00007738  00000+0  31621-3 0  9996",
        "tle_line2": "2 58703  97.4622 182.2607 0003049 228.3383 131.7594 15.24649535109493"
      },
      "geometry": {
        "type": "Point",
        "coordinates": [
          -155.09510257968537,
          -70.96679562072976
        ]
      }
    },
    {
      "type": "Feature",
      "properties": {
        "norad_id": 58990,
        "name": "INSAT-3DS",
        "group": "weather",
        "lat": 0.026936629554512516,
        "lon": -122.32847730382944,
        "alt_km": 35781.93036515759,
        "timestamp": "2025-12-27T03:58:43.824952+00:00",
        "meta_object_name": "INSAT-3DS",
        "meta_object_id": "2024-033A",
        "meta_epoch": "2025-12-26T19:54:32.859936",
        "meta_mean_motion": 1.00270815,
        "meta_eccentricity": 0.0001355,
        "meta_inclination": 0.0638,
        "meta_ra_of_asc_node": 98.7885,
        "meta_arg_of_pericenter": 178.2413,
        "meta_mean_anomaly": 199.2829,
        "meta_ephemeris_type": 0,
        "meta_classification_type": "U",
        "meta_norad_cat_id": 58990,
        "meta_element_set_no": 999,
        "meta_rev_at_epoch": 4534,
        "meta_bstar": 0,
        "meta_mean_motion_dot": -1.34e-06,
        "meta_mean_motion_ddot": 0,
        "tle_line1": "1 58990U 24033A   25360.82954699 -.00000134  00000+0  00000+0 0  9998",
        "tle_line2": "2 58990   0.0638  98.7885 0001355 178.2413 199.2829  1.00270815 45345"
      },
      "geometry": {
        "type": "Point",
        "coordinates": [
          -122.32847730382944,
          0.026936629554512516
        ]
      }
    },
    {
      "type": "Feature",
      "properties": {
        "norad_id": 59051,
        "name": "METEOR-M2 4",
        "group": "weather",
        "lat": -25.753192676089956,
        "lon": 133.6243143464412,
        "alt_km": 824.2939724216285,
        "timestamp": "2025-12-27T03:58:43.824962+00:00",
        "meta_object_name": "METEOR-M2 4",
        "meta_object_id": "2024-039A",
        "meta_epoch": "2025-12-26T20:15:35.995104",
        "meta_mean_motion": 14.22403471,
        "meta_eccentricity": 0.0006327,
        "meta_inclination": 98.6786,
        "meta_ra_of_asc_node": 317.5332,
        "meta_arg_of_pericenter": 315.6972,
        "meta_mean_anomaly": 44.3699,
        "meta_ephemeris_type": 0,
        "meta_classification_type": "U",
        "meta_norad_cat_id": 59051,
        "meta_element_set_no": 999,
        "meta_rev_at_epoch": 9476,
        "meta_bstar": 4.3739e-05,
        "meta_mean_motion_dot": 5.4e-07,
        "meta_mean_motion_ddot": 0,
        "tle_line1": "1 59051U 24039A   25360.84416661  .00000054  00000+0  43739-4 0  9998",
        "tle_line2": "2 59051  98.6786 317.5332 0006327 315.6972  44.3699 14.22403471 94760"
      },
      "geometry": {
        "type": "Point",
        "coordinates": [
          133.6243143464412,
          -25.753192676089956
        ]
      }
    },
    {
      "type": "Feature",
      "properties": {
        "norad_id": 60133,
        "name": "GOES 19",
        "group": "weather",
        "lat": 0.012092109489805046,
        "lon": 80.38277724797457,
        "alt_km": 35789.90825890011,
        "timestamp": "2025-12-27T03:58:43.824972+00:00",
        "meta_object_name": "GOES 19",
        "meta_object_id": "2024-119A",
        "meta_epoch": "2025-12-26T12:35:56.409216",
        "meta_mean_motion": 1.00266665,
        "meta_eccentricity": 9.47e-05,
        "meta_inclination": 0.0307,
        "meta_ra_of_asc_node": 217.6802,
        "meta_arg_of_pericenter": 97.1965,
        "meta_mean_anomaly": 254.1873,
        "meta_ephemeris_type": 0,
        "meta_classification_type": "U",
        "meta_norad_cat_id": 60133,
        "meta_element_set_no": 999,
        "meta_rev_at_epoch": 523,
        "meta_bstar": 0,
        "meta_mean_motion_dot": -2.26e-06,
        "meta_mean_motion_ddot": 0,
        "tle_line1": "1 60133U 24119A   25360.52495844 -.00000226  00000+0  00000+0 0  9996",
        "tle_line2": "2 60133   0.0307 217.6802 0000947  97.1965 254.1873  1.00266665  5230"
      },
      "geometry": {
        "type": "Point",
        "coordinates": [
          80.38277724797457,
          0.012092109489805046
        ]
      }
    },
    {
      "type": "Feature",
      "properties": {
        "norad_id": 65815,
        "name": "FENGYUN 3H",
        "group": "weather",
        "lat": -43.981750972398686,
        "lon": -51.09773474116811,
        "alt_km": 832.8659516771413,
        "timestamp": "2025-12-27T03:58:43.824982+00:00",
        "meta_object_name": "FENGYUN 3H",
        "meta_object_id": "2025-219A",
        "meta_epoch": "2025-12-26T19:43:57.387072",
        "meta_mean_motion": 14.19908474,
        "meta_eccentricity": 8.73e-05,
        "meta_inclination": 98.6603,
        "meta_ra_of_asc_node": 300.108,
        "meta_arg_of_pericenter": 109.9253,
        "meta_mean_anomaly": 250.2017,
        "meta_ephemeris_type": 0,
        "meta_classification_type": "U",
        "meta_norad_cat_id": 65815,
        "meta_element_set_no": 999,
        "meta_rev_at_epoch": 1292,
        "meta_bstar": 7.1101e-05,
        "meta_mean_motion_dot": 1.08e-06,
        "meta_mean_motion_ddot": 0,
        "tle_line1": "1 65815U 25219A   25360.82219198  .00000108  00000+0  71101-4 0  9992",
        "tle_line2": "2 65815  98.6603 300.1080 0000873 109.9253 250.2017 14.19908474 12926"
      },
      "geometry": {
        "type": "Point",
        "coordinates": [
          -51.09773474116811,
          -43.981750972398686
        ]
      }
    }
  ]
}